NORAD_CAT_ID,OBJECT_NAME,OBJECT_TYPE,EPOCH,MEAN_MOTION,ECCENTRICITY,INCLINATION,RA_OF_ASC_NODE,ARG_OF_PERICENTER,MEAN_ANOMALY,BSTAR,MEAN_MOTION_DOT,MEAN_MOTION_DDOT,TLE_LINE0,TLE_LINE1,TLE_LINE2,SEMIMAJOR_AXIS,PERIOD,APOGEE,PERIGEE,DECAYED
52001.0,STARLINK-3659,PAYLOAD,2024-01-10 04:19:11,15.0884783,0.0001966,53.22,323.3797,94.3038,265.8179,2.4314e-05,9.9e-07,0.0,0 STARLINK-3659,1 52001U 22025AX  24010.17999015  .00000099  00000-0  24314-4 0  9993,2 52001  53.2200 323.3797 0001966  94.3038 265.8179 15.08847830103269,6917.856,95.437,541.082,538.361,0.0
52001.0,STARLINK-3659,PAYLOAD,2024-01-11 02:34:35,15.08841982,0.0001637,53.2196,319.215,102.8578,257.2598,1.3511e-05,-7.3e-07,0.0,0 STARLINK-3659,1 52001U 22025AX  24011.10735322 -.00000073  00000-0  13511-4 0  9996,2 52001  53.2196 319.2150 0001637 102.8578 257.2598 15.08841982103407,6917.874,95.437,540.872,538.607,0.0
52001.0,STARLINK-3659,PAYLOAD,2024-01-11 05:45:21,15.08848831,0.0001378,53.2191,318.6186,115.3309,244.7826,3.9724e-05,3.44e-06,0.0,0 STARLINK-3659,1 52001U 22025AX  24011.23982745  .00000344  00000-0  39724-4 0  9997,2 52001  53.2191 318.6186 0001378 115.3309 244.7826 15.08848831101893,6917.853,95.437,540.672,538.765,0.0
52001.0,STARLINK-3659,PAYLOAD,2024-01-11 20:03:50,15.08838664,0.0001439,53.219,315.939,112.6945,247.4199,-0.00010512,-1.96e-05,0.0,0 STARLINK-3659,1 52001U 22025AX  24011.83599956 -.00001960  00000-0 -10512-3 0  9991,2 52001  53.2190 315.9390 0001439 112.6945 247.4199 15.08838664103510,6917.884,95.438,540.745,538.754,0.0
52001.0,STARLINK-3659,PAYLOAD,2024-01-12 05:36:08,15.08846685,0.0002101,53.2186,314.1598,95.3428,264.7804,-2.1791e-05,-6.35e-06,0.0,0 STARLINK-3659,1 52001U 22025AX  24012.23343283 -.00000635  00000-0 -21791-4 0  9996,2 52001  53.2186 314.1598 0002101  95.3428 264.7804 15.08846685103579,6917.86,95.437,541.178,538.272,0.0
52001.0,STARLINK-3659,PAYLOAD,2024-01-12 19:54:37,15.08832725,0.0001207,53.2189,311.4811,104.6564,255.4562,-7.8372e-05,-1.535e-05,0.0,0 STARLINK-3659,1 52001U 22025AX  24012.82960396 -.00001535  00000-0 -78372-4 0  9998,2 52001  53.2189 311.4811 0001207 104.6564 255.4562 15.08832725103669,6917.903,95.438,540.603,538.933,0.0
52001.0,STARLINK-3659,PAYLOAD,2024-01-13 02:16:10,15.08831992,0.0001415,53.2185,310.2907,109.9746,250.1398,-8.3672e-05,-1.619e-05,0.0,0 STARLINK-3659,1 52001U 22025AX  24013.09456548 -.00001619  00000-0 -83672-4 0  9999,2 52001  53.2185 310.2907 0001415 109.9746 250.1398 15.08831992102178,6917.905,95.438,540.749,538.791,0.0
52001.0,STARLINK-3659,PAYLOAD,2024-01-14 00:31:33,15.08848883,0.0001589,53.2184,306.1279,87.6641,272.4533,5.8211e-05,6.39e-06,0.0,0 STARLINK-3659,1 52001U 22025AX  24014.02191335  .00000639  00000-0  58211-4 0  9993,2 52001  53.2184 306.1279 0001589  87.6641 272.4533 15.08848883103841,6917.853,95.437,540.817,538.619,0.0
52001.0,STARLINK-3659,PAYLOAD,2024-01-14 05:17:41,15.08861457,0.0002049,53.2183,305.2346,125.8359,234.2823,0.00015224,2.137e-05,0.0,0 STARLINK-3659,1 52001U 22025AX  24014.22061943  .00002137  00000-0  15224-3 0  9997,2 52001  53.2183 305.2346 0002049 125.8359 234.2823 15.08861457103871,6917.815,95.436,541.097,538.262,0.0
52001.0,STARLINK-3659,PAYLOAD,2024-01-14 22:46:57,15.088429,0.00024,53.218,301.9576,135.6407,224.4778,0.00011292,1.509e-05,0.0,0 STARLINK-3659,1 52001U 22025AX  24014.94927104  .00001509  00000-0  11292-3 0  9999,2 52001  53.2180 301.9576 0002400 135.6407 224.4778 15.08842900102455,6917.872,95.437,541.397,538.076,0.0
52001.0,STARLINK-3659,PAYLOAD,2024-01-15 01:57:43,15.08838954,0.0001718,53.2191,301.3702,111.0031,249.1145,0.00015464,2.174e-05,0.0,0 STARLINK-3659,1 52001U 22025AX  24015.08175499  .00002174  00000-0  15464-3 0  9991,2 52001  53.2191 301.3702 0001718 111.0031 249.1145 15.08838954104003,6917.884,95.438,540.937,538.56,0.0
52001.0,STARLINK-3659,PAYLOAD,2024-01-16 03:23:53,15.08852214,0.000172,53.2189,296.6151,112.2092,247.9082,-0.00011946,-2.189e-05,0.0,0 STARLINK-3659,1 52001U 22025AX  24016.14159400 -.00002189  00000-0 -11946-3 0  9992,2 52001  53.2189 296.6151 0001720 112.2092 247.9082 15.08852214104165,6917.843,95.437,540.898,538.518,0.0
52001.0,STARLINK-3659,PAYLOAD,2024-01-16 04:59:16,15.08852035,0.000173,53.2191,296.3175,108.6099,251.5081,-0.00010329,-1.932e-05,0.0,0 STARLINK-3659,1 52001U 22025AX  24016.20783360 -.00001932  00000-0 -10329-3 0  9996,2 52001  53.2191 296.3175 0001730 108.6099 251.5081 15.08852035102640,6917.844,95.437,540.905,538.512,0.0
52001.0,STARLINK-3659,PAYLOAD,2024-01-16 22:28:32,15.08839505,0.0001613,53.2189,293.047,101.0499,259.0674,-5.1699e-05,-1.111e-05,0.0,0 STARLINK-3659,1 52001U 22025AX  24016.93648302 -.00001111  00000-0 -51699-4 0  9997,2 52001  53.2189 293.0470 0001613 101.0499 259.0674 15.08839505102750,6917.882,95.438,540.863,538.631,0.0
52001.0,STARLINK-3659,PAYLOAD,2024-01-17 01:39:17,15.08845241,0.0001596,53.2186,292.4528,96.2418,263.8756,-4.1179e-06,-3.54e-06,0.0,0 STARLINK-3659,1 52001U 22025AX  24017.06895665 -.00000354  00000-0 -41179-5 0  9999,2 52001  53.2186 292.4528 0001596  96.2418 263.8756 15.08845241104301,6917.864,95.437,540.833,538.625,0.0
52001.0,STARLINK-3659,PAYLOAD,2024-01-17 22:19:19,15.08838244,0.0001407,53.2169,288.5906,85.1688,274.9464,-4.2222e-06,-3.55e-06,0.0,0 STARLINK-3659,1 52001U 22025AX  24017.93008715 -.00000355  00000-0 -42222-5 0  9998,2 52001  53.2169 288.5906 0001407  85.1688 274.9464 15.08838244102903,6917.886,95.438,540.724,538.777,0.0
52001.0,STARLINK-3659,PAYLOAD,2024-01-18 03:05:28,15.08841816,0.000145,53.2171,287.6956,97.5689,262.5468,2.1557e-05,5.5e-07,0.0,0 STARLINK-3659,1 52001U 22025AX  24018.12880331  .00000055  00000-0  21557-4 0  9994,2 52001  53.2171 287.6956 0001450  97.5689 262.5468 15.08841816104466,6917.875,95.437,540.743,538.737,0.0
52001.0,STARLINK-3659,PAYLOAD,2024-01-18 22:10:06,15.08840394,0.0001509,53.2178,284.1252,110.3191,249.7964,4.9186e-05,4.95e-06,0.0,0 STARLINK-3659,1 52001U 22025AX  24018.92368364  .00000495  00000-0  49186-4 0  9995,2 52001  53.2178 284.1252 0001509 110.3191 249.7964 15.08840394103053,6917.879,95.438,540.788,538.7,0.0
52001.0,STARLINK-3659,PAYLOAD,2024-01-19 01:20:52,15.08846934,0.0001553,53.2178,283.5288,96.4983,263.6186,6.5219e-05,7.5e-06,0.0,0 STARLINK-3659,1 52001U 22025AX  24019.05615984  .00000750  00000-0  65219-4 0  9992,2 52001  53.2178 283.5288 0001553  96.4983 263.6186 15.08846934103076,6917.859,95.437,540.799,538.65,0.0
52001.0,STARLINK-3659,PAYLOAD,2024-01-19 22:00:53,15.08840425,0.0001453,53.2169,279.6649,111.398,248.7167,2.522e-05,1.13e-06,0.0,0 STARLINK-3659,1 52001U 22025AX  24019.91728383  .00000113  00000-0  25220-4 0  9996,2 52001  53.2169 279.6649 0001453 111.3980 248.7167 15.08840425103203,6917.879,95.438,540.749,538.739,0.0
52001.0,STARLINK-3659,PAYLOAD,2024-01-19 23:36:16,15.08844469,0.0001464,53.2177,279.3663,106.0613,254.054,5.5786e-05,6e-06,0.0,0 STARLINK-3659,1 52001U 22025AX  24019.98352030  .00000600  00000-0  55786-4 0  9996,2 52001  53.2177 279.3663 0001464 106.0613 254.0540 15.08844469104748,6917.867,95.437,540.745,538.719,0.0
52001.0,STARLINK-3659,PAYLOAD,2024-01-20 20:16:17,15.08841705,0.0001622,53.2178,275.501,100.687,259.4304,-6.5247e-05,-1.326e-05,0.0,0 STARLINK-3659,1 52001U 22025AX  24020.84464791 -.00001326  00000-0 -65247-4 0  9992,2 52001  53.2178 275.5010 0001622 100.6870 259.4304 15.08841705104875,6917.875,95.437,540.862,538.618,0.0
52001.0,STARLINK-3659,PAYLOAD,2024-01-20 21:51:40,15.08839624,0.0001446,53.2168,275.2058,87.8142,272.3015,-6.9286e-05,-1.39e-05,0.0,0 STARLINK-3659,1 52001U 22025AX  24020.91089050 -.00001390  00000-0 -69286-4 0  9999,2 52001  53.2168 275.2058 0001446  87.8142 272.3015 15.08839624103357,6917.882,95.438,540.747,538.746,0.0
52001.0,STARLINK-3659,PAYLOAD,2024-01-21 02:37:50,15.08836952,0.0001388,53.2174,274.3114,102.7245,257.3903,3.3579e-05,2.46e-06,0.0,0 STARLINK-3659,1 52001U 22025AX  24021.10960767  .00000246  00000-0  33579-4 0  9997,2 52001  53.2174 274.3114 0001388 102.7245 257.3903 15.08836952103386,6917.89,95.438,540.715,538.795,0.0
52001.0,STARLINK-3659,PAYLOAD,2024-01-21 21:42:27,15.08848122,0.0001528,53.2168,270.7429,98.5698,261.5467,9.0081e-07,-2.74e-06,0.0,0 STARLINK-3659,1 52001U 22025AX  24021.90448224 -.00000274  00000-0  90081-6 0  9999,2 52001  53.2168 270.7429 0001528  98.5698 261.5467 15.08848122103506,6917.856,95.437,540.778,538.664,0.0
52001.0,STARLINK-3659,PAYLOAD,2024-01-21 23:17:51,15.08789819,0.000183,53.2167,270.445,100.1796,259.9403,0.00081551,0.00012697,0.0,0 STARLINK-3659,1 52001U 22025AX  24021.97073104  .00012697  00000-0  81551-3 0  9997,2 52001  53.2167 270.4450 0001830 100.1796 259.9403 15.08789819105040,6918.034,95.441,541.165,538.633,0.0
52001.0,STARLINK-3659,PAYLOAD,2024-01-22 19:57:51,15.08836198,0.0001604,53.2169,266.5805,115.8718,244.244,1.388e-05,-6.7e-07,0.0,0 STARLINK-3659,1 52001U 22025AX  24022.83185032 -.00000067  00000-0  13880-4 0  9997,2 52001  53.2169 266.5805 0001604 115.8718 244.2440 15.08836198105173,6917.892,95.438,540.867,538.647,0.0
52001.0,STARLINK-3659,PAYLOAD,2024-01-22 21:33:15,15.08835669,0.0001584,53.2171,266.2834,116.0799,244.0356,5.7617e-06,-1.96e-06,0.0,0 STARLINK-3659,1 52001U 22025AX  24022.89809060 -.00000196  00000-0  57617-5 0  9997,2 52001  53.2171 266.2834 0001584 116.0799 244.0356 15.08835669103651,6917.894,95.438,540.854,538.663,0.0
52001.0,STARLINK-3659,PAYLOAD,2024-01-22 23:08:38,15.08835996,0.0001508,53.217,265.9864,113.4553,246.6598,3.3678e-06,-2.34e-06,0.0,0 STARLINK-3659,1 52001U 22025AX  24022.96433070 -.00000234  00000-0  33678-5 0  9993,2 52001  53.2170 265.9864 0001508 113.4553 246.6598 15.08835996103664,6917.893,95.438,540.801,538.714,0.0
52001.0,STARLINK-3659,PAYLOAD,2024-01-23 22:59:27,15.08799375,0.0002022,53.2167,261.5277,145.8266,214.2857,-0.00041138,-6.822e-05,0.0,0 STARLINK-3659,1 52001U 22025AX  24023.95796144 -.00006822  00000-0 -41138-3 0  9995,2 52001  53.2167 261.5277 0002022 145.8266 214.2857 15.08799375103818,6918.005,95.44,541.268,538.471,0.0
